IRIDIUM 150             
1 43257U 18030J   25138.39786436  .00000078  00000+0  20665-4 0  9995
2 43257  86.3942  95.5197 0002579  88.0919 272.0572 14.34217370373593
IRIDIUM 143             
1 43258U 18030K   25138.37883721  .00000064  00000+0  15910-4 0  9991
2 43258  86.3945  95.6049 0002778  87.0356 273.1158 14.34217910373535
IRIDIUM 161             
1 43478U 18047C   25138.05254365  .00000501  00000+0  14283-3 0  9991
2 43478  86.4489 253.5307 0002077  94.4534 265.6904 14.43283753368141
IRIDIUM 152             
1 43479U 18047D   25138.07247945  .00000097  00000+0  27559-4 0  9991
2 43479  86.3963 253.3827 0002129  98.2321 261.9117 14.34218084365863
IRIDIUM 147             
1 43480U 18047E   25138.07882198  .00000089  00000+0  24816-4 0  9992
2 43480  86.3965 253.3783 0002098  91.2460 268.8976 14.34218185365850
IRIDIUM 110             
1 43481U 18047F   25137.38747900  .00000048  00000+0  10007-4 0  9999
2 43481  86.3966 253.7487 0001744  97.8483 262.2910 14.34217767365740
IRIDIUM 162             
1 43482U 18047G   25137.76891721  .00000515  00000+0  14715-3 0  9991
2 43482  86.4486 253.5447 0002059 101.7602 258.3830 14.43280704368090
IRIDIUM 160             
1 43569U 18061A   25138.24030616  .00000026  00000+0  20553-5 0  9991
2 43569  86.4009 221.7810 0001916  95.6050 264.5364 14.34217783356766
